#dP2024 11  4  6  0  0.00000000      96 __u+U IGS20 EXT  IAC
## 2339 108000.00000000   900.00000000 60618 0.2500000000000
+   52   G02G03G04G05G06G07G08G09G10G11G12G13G14G15G16G17G18
+        G19G20G21G22G23G24G25G26G27G28G29G30G31G32R01R02R03
+        R04R05R07R08R09R11R12R14R15R16R17R18R19R20R21R22R24
+        R26  0  0  0  0  0  0  0  0  0  0  0  0  0  0  0  0
+          0  0  0  0  0  0  0  0  0  0  0  0  0  0  0  0  0
++         7  8  7  8  7  7  7  7  7  7  7  7  8  7  7  8  7
++         8  7  7  7  7  7  8  8  8  8  7  7  7  8  8  9  8
++         8  8  8  7  9  8  9  8  7  8  7  9  7  9  8  7  8
++         9  0  0  0  0  0  0  0  0  0  0  0  0  0  0  0  0
++         0  0  0  0  0  0  0  0  0  0  0  0  0  0  0  0  0
%c M  cc GPS ccc cccc cccc cccc cccc ccccc ccccc ccccc ccccc
%c cc cc ccc ccc cccc cccc cccc cccc ccccc ccccc ccccc ccccc
%f  0.0000000  0.000000000  0.00000000000  0.000000000000000
%f  0.0000000  0.000000000  0.00000000000  0.000000000000000
%i    0    0    0    0      0      0      0      0         0
%i    0    0    0    0      0      0      0      0         0
/* IAC                                ULTRA-RAPID PREDICTION
/* S/V CLOCKS ARE ALIGNED TO GNSS TIME                      
/* G:C1WC2W R:C1PC2P E:C1XC5X C:C2IC6I J:C1CC2S             
/* PCV:IGS20_2317 OL/AL:FES2004  NONE     YN ORB:CoN CLK:CoN
*  2024 11 04 22 30  0.00000000
PG02   8135.574638 -18810.682196 -16225.474880   -321.831909
PG03  -4984.018561 -17937.397735 -19151.556736    590.834518
PG04    456.629595 -26427.801789   1585.338207    473.896758
PG05 -11296.538125  10457.299302  21473.831467   -191.990689
PG06 -23505.418310   3475.685995 -11914.148903    -89.935431
PG07  -9583.253040 -12593.660620  21888.664228    -22.238445
PG08   6814.800101 -23353.607638   9992.332963    404.597454
PG09  -7352.996382 -23216.810561  10424.598062    429.209029
PG10  23990.994904   9920.665187  -6186.565509   -183.658337
PG11 -23301.422421  12576.138133   1601.433950   -748.480355
PG12   -487.550982  17195.362965 -20531.239991   -549.898989
PG13 -13241.139591  17142.049366  14975.819055    684.627677
PG14 -23364.258693 -12590.248660  -2741.987516    532.792582
PG15  -3421.420063  24454.739874   9055.531736    223.924692
PG16  16396.269123  -5276.885354  19992.688187   -136.786265
PG17 -13324.145653  -9653.837611 -20388.351792    570.833548
PG18  10853.863416  10944.702920  21684.014105   -659.830212
PG19 -15309.790888    771.738608 -21804.039661    558.909353
PG20 -20740.026696   4145.314987  16052.258299    369.030988
PG21  13202.088972 -18860.048299 -11834.764331     98.218346
PG22 -22808.260230  -7872.502528 -10346.594037    -76.860620
PG23  19691.960654  16627.049688   6933.344944    356.422338
PG24  -8983.062900  19878.154718 -15330.484998   -481.961028
PG25  13413.137913  18963.642695 -13467.475139    499.213672
PG26  23670.203928   1688.872587  12140.704117     37.248548
PG27  12617.334739 -14659.774833  17711.323695    -34.745014
PG28  22668.005784  -2234.071536 -13680.607807   -468.696593
PG29   4317.243519  24248.476157   9738.151746   -566.223705
PG30 -19223.348704  -4606.464907  18009.794609   -288.540119
PG31  24649.753075  -9850.973394  -3640.409440   -222.306669
PG32  14549.678816   6609.809866 -21030.599856   -578.104607
PR01   8925.725596  23888.962312    450.307961    103.361732
PR02  12895.167812  15503.193534 -15630.435418    -25.516503
PR03  10609.472725  -2296.175078 -23043.509431    110.766643
PR04   2517.760371 -18119.917976 -17740.970262    262.491691
PR05  -6731.107406 -24409.973653  -2940.861384    140.218920
PR07 -10429.483984   2919.089343  23129.112636     94.332539
PR08  -2315.372382  18380.614817  17611.817336     -6.311528
PR09 -23139.382113  -7480.276762   7855.638633    218.676035
PR11 -12741.610466   7712.788792 -20704.118355      7.639304
PR12   8508.616415  11770.372177 -20951.107809     46.864083
PR14  23740.434181   -453.057082   9303.343423     27.176667
PR15  11056.461391  -8430.433104  21400.520933     74.420272
PR16  -8391.013693 -11623.916663  21114.523382     30.528616
PR17  18443.307185 -12265.602733  12710.449680    136.965308
PR18  15698.643577 -19798.829905  -3312.287709    170.299926
PR19   6977.569463 -18087.794188 -16576.276648   -297.314527
PR20 -10408.871677  -3976.518495 -22932.681012   -121.468881
PR21 -18358.029881  11408.973628 -13510.278052   -148.583244
PR22 -15495.910070  19747.451394   4588.982442     -0.008609
PR24  11284.545414   3365.080885  22653.913946    -78.813604
PR26  -3173.430777  17102.872718  18666.695808   -119.706874
*  2024 11 04 22 45  0.00000000
PG02   9743.458353 -19703.957063 -14179.460782   -321.824319
PG03  -3016.875730 -16895.188217 -20466.782930    590.844273
PG04    710.092413 -26436.748449  -1289.115280    473.902684
PG05 -13459.525411   9307.273785  20755.823547   -191.991728
PG06 -22266.748942   2619.472564 -14257.281032    -89.961221
PG07  -7511.313519 -13799.968212  21931.629599    -22.236158
PG08   7151.207863 -22052.518102  12431.579944    404.607046
PG09  -7148.106224 -24283.293515   7833.573082    429.224224
PG10  24406.205239  10334.241056  -3368.277621   -183.671062
PG11 -23429.421033  12366.093803  -1268.630967   -748.482203
PG12  -2476.938238  15964.914044 -21371.735969   -549.901286
PG13 -13161.807256  15264.563434  16940.287388    684.629127
PG14 -23355.853190 -12912.695560     63.475420    532.800040
PG15  -3931.300580  23268.201367  11516.198885    223.928740
PG16  18214.750092  -3911.548922  18754.323690   -136.777464
PG17 -13094.971834 -12001.694265 -19265.370706    570.820887
PG18   8694.857540  12178.299654  21977.870100   -659.830876
PG19 -15101.790022  -1690.896724 -21935.384424    558.913428
PG20 -22292.365994   3393.122969  13994.373214    369.030671
PG21  14431.814135 -19371.882558  -9295.222167     98.217557
PG22 -23559.601647  -8710.205789  -7738.209268    -76.863391
PG23  18789.762162  16334.130169   9607.252146    356.429532
PG24 -10416.126884  20605.038636 -13222.642182   -481.959365
PG25  11915.139805  18369.260985 -15566.258942    499.213487
PG26  24712.432949   2462.505518   9764.433764     37.236261
PG27  12818.904076 -12482.001251  19189.028668    -34.745038
PG28  21344.997438  -1177.111079 -15781.153795   -468.707535
PG29   4029.402233  25201.387071   7081.825358   -566.221044
PG30 -17479.869166  -5805.557040  19374.378808   -288.533136
PG31  24293.090749  -9380.545166  -6385.229802   -222.306121
PG32  14525.725057   9007.969844 -20165.802184   -578.100111
PR01   8964.672744  23597.268126   3651.137193    103.362892
PR02  13649.571588  17120.009891 -13111.852098    -25.516695
PR03  11651.756937    335.545834 -22655.050248    110.767634
PR04   3230.620545 -15916.046353 -19637.509288    262.493282
PR05  -6702.385195 -23823.213936  -6109.048964    140.219638
PR07 -11459.922446    286.040303  22816.538101     94.333405
PR08  -3039.331302  16216.876341  19525.172910     -6.311451
PR09 -22015.300033  -7255.333044  10758.945617    218.677967
PR11 -15184.455129   7435.869434 -19097.788360      7.638756
PR12   5886.395439  11330.853383 -22062.414340     46.864516
PR14  24707.626393   -428.124953   6295.595179     27.176735
PR15  13588.098831  -8106.813342  20021.912304     74.419856
PR16  -5756.199023 -11183.834165  22204.124464     30.528932
PR17  17235.829684 -11025.467764  15280.272292    136.968327
PR18  15683.076211 -20089.371925    -80.873456    170.301624
PR19   8120.632835 -19613.637565 -14144.193206   -297.315749
PR20  -8484.547241  -6090.051602 -23256.294417   -121.469416
PR21 -17074.908399  10101.245452 -16005.005803   -148.586119
PR22 -15627.855888  20118.201610   1405.605297     -0.019235
PR24   9495.111487   5536.343703  23043.143292    -78.814999
PR26  -3970.475665  14829.466321  20382.489746   -119.669368
EOF
